[{"OBJECT_NAME":"STARLINK-3523","OBJECT_ID":"2022-016R","EPOCH":"2026-03-09T22:48:17.189280","MEAN_MOTION":15.08854313,"ECCENTRICITY":8.863e-5,"INCLINATION":53.2174,"RA_OF_ASC_NODE":317.9517,"ARG_OF_PERICENTER":106.2132,"MEAN_ANOMALY":253.8958,"EPHEMERIS_TYPE":0,"CLASSIFICATION_TYPE":"U","NORAD_CAT_ID":51729,"ELEMENT_SET_NO":999,"REV_AT_EPOCH":22360,"BSTAR":3.6313793e-5,"MEAN_MOTION_DOT":2.9e-6,"MEAN_MOTION_DDOT":0},{"OBJECT_NAME":"COSMOS 2535 DEB","OBJECT_ID":"2019-039H","EPOCH":"2026-03-09T01:37:49.505376","MEAN_MOTION":15.12536261,"ECCENTRICITY":0.00199509,"INCLINATION":97.5365,"RA_OF_ASC_NODE":108.6978,"ARG_OF_PERICENTER":50.248,"MEAN_ANOMALY":310.0505,"EPHEMERIS_TYPE":0,"CLASSIFICATION_TYPE":"U","NORAD_CAT_ID":44631,"ELEMENT_SET_NO":999,"REV_AT_EPOCH":34980,"BSTAR":0.00071319108,"MEAN_MOTION_DOT":0.00012434,"MEAN_MOTION_DDOT":0}]
